{
  "norad_id": 38771,
  "name": "METOP-B",
  "history": [
    {
      "epoch": "2026-04-11T19:27:00.421920Z",
      "apogee_km": 822.5482646755299,
      "perigee_km": 818.4954197473635,
      "latitude_deg": 4.8426445618540515e-05,
      "longitude_deg": 22.83696822323532,
      "height_km": 825.2679572791013,
      "semi_major_axis_km": 7198.658842211446,
      "eccentricity": 0.0002815,
      "inclination_deg": 98.6573,
      "raan_deg": 154.6133,
      "arg_perigee_deg": 154.5365,
      "mean_anomaly_deg": 205.5952,
      "mean_motion_rev_day": 14.21429662
    },
    {
      "epoch": "2026-04-13T05:14:16.920096Z",
      "apogee_km": 822.5982167646116,
      "perigee_km": 818.443151549317,
      "latitude_deg": 7.62856272940769e-05,
      "longitude_deg": -123.9885994819067,
      "height_km": 825.264089384565,
      "semi_major_axis_km": 7198.657684156964,
      "eccentricity": 0.0002886,
      "inclination_deg": 98.657,
      "raan_deg": 155.9941,
      "arg_perigee_deg": 151.5787,
      "mean_anomaly_deg": 208.5549,
      "mean_motion_rev_day": 14.21430005
    },
    {
      "epoch": "2026-04-14T20:05:38.864832Z",
      "apogee_km": 822.6519370284914,
      "perigee_km": 818.3874528024244,
      "latitude_deg": 3.0313162196422145e-05,
      "longitude_deg": 13.16210965454733,
      "height_km": 825.2399395295099,
      "semi_major_axis_km": 7198.656694915458,
      "eccentricity": 0.0002962,
      "inclination_deg": 98.6567,
      "raan_deg": 157.582,
      "arg_perigee_deg": 147.8008,
      "mean_anomaly_deg": 212.3351,
      "mean_motion_rev_day": 14.21430298
    },
    {
      "epoch": "2026-04-15T19:44:44.380032Z",
      "apogee_km": 822.683709566827,
      "perigee_km": 818.3544378041124,
      "latitude_deg": -1.6042854996320938e-05,
      "longitude_deg": 18.38430466312822,
      "height_km": 825.222359011373,
      "semi_major_axis_km": 7198.65607368547,
      "eccentricity": 0.0003007,
      "inclination_deg": 98.6566,
      "raan_deg": 158.5485,
      "arg_perigee_deg": 145.6689,
      "mean_anomaly_deg": 214.4683,
      "mean_motion_rev_day": 14.21430482
    },
    {
      "epoch": "2026-04-16T19:23:49.884000Z",
      "apogee_km": 822.7152828402359,
      "perigee_km": 818.3212236736481,
      "latitude_deg": 5.7893022521609004e-05,
      "longitude_deg": 23.606628373144794,
      "height_km": 825.2019245576805,
      "semi_major_axis_km": 7198.655253256942,
      "eccentricity": 0.0003052,
      "inclination_deg": 98.6564,
      "raan_deg": 159.5151,
      "arg_perigee_deg": 143.5894,
      "mean_anomaly_deg": 216.5492,
      "mean_motion_rev_day": 14.21430725
    },
    {
      "epoch": "2026-04-17T22:25:39.017568Z",
      "apogee_km": 822.7512371538123,
      "perigee_km": 818.2836082459971,
      "latitude_deg": 5.454171530194438e-05,
      "longitude_deg": -21.853688461699974,
      "height_km": 825.1745631651207,
      "semi_major_axis_km": 7198.654422699905,
      "eccentricity": 0.00031031,
      "inclination_deg": 98.6563,
      "raan_deg": 160.6196,
      "arg_perigee_deg": 141.2384,
      "mean_anomaly_deg": 218.9017,
      "mean_motion_rev_day": 14.21430971
    },
    {
      "epoch": "2026-04-18T20:23:22.672608Z",
      "apogee_km": 822.776401484477,
      "perigee_km": 818.2570866639471,
      "latitude_deg": 8.258364110611278e-05,
      "longitude_deg": 8.70995887907191,
      "height_km": 825.1461343918202,
      "semi_major_axis_km": 7198.653744074211,
      "eccentricity": 0.0003139,
      "inclination_deg": 98.6561,
      "raan_deg": 161.5171,
      "arg_perigee_deg": 139.3445,
      "mean_anomaly_deg": 220.7968,
      "mean_motion_rev_day": 14.21431172
    },
    {
      "epoch": "2026-04-19T20:02:28.136832Z",
      "apogee_km": 822.8052202368926,
      "perigee_km": 818.226876898003,
      "latitude_deg": -6.981005836157238e-05,
      "longitude_deg": 13.932279981936823,
      "height_km": 825.1088678216089,
      "semi_major_axis_km": 7198.6530485674475,
      "eccentricity": 0.000318,
      "inclination_deg": 98.656,
      "raan_deg": 162.4835,
      "arg_perigee_deg": 137.1357,
      "mean_anomaly_deg": 223.0068,
      "mean_motion_rev_day": 14.21431378
    }
  ]
}